DELTA 2 R/B(1)          
1 20303U 89085B   23258.41893189  .00252492  00000+0  10866-2 0  9997
2 20303  35.6276  11.6513 0031158  71.9233 288.4902 15.82610096851071
DELTA 1 R/B             
1 20323U 89089B   23258.51614624  .00000670  00000+0  17975-3 0  9997
2 20323  97.0783 231.6345 0072574 100.5018 260.4367 14.48989301764428
ARIANE 40 R/B           
1 20443U 90005H   23258.21596535  .00000535  00000+0  18859-3 0  9999
2 20443  98.4315 324.1857 0011140  50.9469 309.2708 14.38605047762412
DELTA 2 R/B(1)          
1 20453U 90008B   23258.51727428  .00018583  00000+0  82984-3 0  9995
2 20453  35.6205  65.4878 0232387 178.7422 181.3921 14.99582127787994
COSMOS 2058             
1 20465U 90010A   23258.41687152  .00003685  00000+0  28584-3 0  9992
2 20465  82.4890 211.5095 0015100 154.7007 205.4960 15.01032458805822
SL-14 R/B               
1 20466U 90010B   23258.43539536  .00000786  00000+0  95793-4 0  9993
2 20466  82.5039  37.5015 0021392  46.7661 313.5335 14.82011177794189
HST                     
1 20580U 90037B   23258.52349498  .00004831  00000+0  24889-3 0  9997
2 20580  28.4700  26.5820 0001918 282.2005 126.5184 15.14025695635165
COSMOS 2084             
1 20663U 90055A   23258.26534847  .00004846  00000+0  37855-3 0  9997
2 20663  62.7926 165.6332 0131068  94.5382 267.0700 14.95901542800254
SL-6 R/B(2)             
1 20666U 90055D   23258.60459327  .00003951  00000+0  32208-3 0  9990
2 20666  62.7832  78.1691 0118099 116.2856 245.0431 14.95873433802274
SL-8 R/B                
1 21088U 91006B   23258.56477194  .00000151  00000+0  13676-3 0  9990
2 21088  82.9410 124.0520 0023695  54.7049  10.0358 13.77268592639334
OKEAN-3                 
1 21397U 91039A   23258.59727372  .00002936  00000+0  25902-3 0  9996
2 21397  82.5198 128.7139 0017355 153.0334 207.1794 14.95967546729169
COSMOS 2151             
1 21422U 91042A   23258.48948268  .00002425  00000+0  22350-3 0  9993
2 21422  82.4979 233.6703 0012343 225.4608 134.5605 14.94261067727590
SL-14 R/B               
1 21423U 91042B   23258.35188718  .00000673  00000+0  85008-4 0  9999
2 21423  82.4975 349.1854 0016883 341.3729  18.6864 14.80380432718910
ERS-1                   
1 21574U 91050A   23258.53473987  .00000434  00000+0  15713-3 0  9990
2 21574  98.7515 239.4665 0033045  10.6590 349.5290 14.38218934685427
