[{"OBJECT_NAME":"DELTA 2 R\/B(1)","OBJECT_ID":"1989-085B","EPOCH":"2023-09-15T10:03:15.715296","MEAN_MOTION":15.82610096,"ECCENTRICITY":0.0031158,"INCLINATION":35.6276,"RA_OF_ASC_NODE":11.6513,"ARG_OF_PERICENTER":71.9233,"MEAN_ANOMALY":288.4902,"EPHEMERIS_TYPE":0,"CLASSIFICATION_TYPE":"U","NORAD_CAT_ID":20303,"ELEMENT_SET_NO":999,"REV_AT_EPOCH":85107,"BSTAR":0.0010866,"MEAN_MOTION_DOT":0.00252492,"MEAN_MOTION_DDOT":0},{"OBJECT_NAME":"DELTA 1 R\/B","OBJECT_ID":"1989-089B","EPOCH":"2023-09-15T12:23:15.035136","MEAN_MOTION":14.48989301,"ECCENTRICITY":0.0072574,"INCLINATION":97.0783,"RA_OF_ASC_NODE":231.6345,"ARG_OF_PERICENTER":100.5018,"MEAN_ANOMALY":260.4367,"EPHEMERIS_TYPE":0,"CLASSIFICATION_TYPE":"U","NORAD_CAT_ID":20323,"ELEMENT_SET_NO":999,"REV_AT_EPOCH":76442,"BSTAR":0.00017975,"MEAN_MOTION_DOT":6.7e-6,"MEAN_MOTION_DDOT":0},{"OBJECT_NAME":"ARIANE 40 R\/B","OBJECT_ID":"1990-005H","EPOCH":"2023-09-15T05:10:59.406240","MEAN_MOTION":14.38605047,"ECCENTRICITY":0.001114,"INCLINATION":98.4315,"RA_OF_ASC_NODE":324.1857,"ARG_OF_PERICENTER":50.9469,"MEAN_ANOMALY":309.2708,"EPHEMERIS_TYPE":0,"CLASSIFICATION_TYPE":"U","NORAD_CAT_ID":20443,"ELEMENT_SET_NO":999,"REV_AT_EPOCH":76241,"BSTAR":0.00018859,"MEAN_MOTION_DOT":5.35e-6,"MEAN_MOTION_DDOT":0},{"OBJECT_NAME":"DELTA 2 R\/B(1)","OBJECT_ID":"1990-008B","EPOCH":"2023-09-15T12:24:52.497792","MEAN_MOTION":14.99582127,"ECCENTRICITY":0.0232387,"INCLINATION":35.6205,"RA_OF_ASC_NODE":65.4878,"ARG_OF_PERICENTER":178.7422,"MEAN_ANOMALY":181.3921,"EPHEMERIS_TYPE":0,"CLASSIFICATION_TYPE":"U","NORAD_CAT_ID":20453,"ELEMENT_SET_NO":999,"REV_AT_EPOCH":78799,"BSTAR":0.00082984,"MEAN_MOTION_DOT":0.00018583,"MEAN_MOTION_DDOT":0},{"OBJECT_NAME":"COSMOS 2058","OBJECT_ID":"1990-010A","EPOCH":"2023-09-15T10:00:17.699328","MEAN_MOTION":15.01032458,"ECCENTRICITY":0.00151,"INCLINATION":82.489,"RA_OF_ASC_NODE":211.5095,"ARG_OF_PERICENTER":154.7007,"MEAN_ANOMALY":205.496,"EPHEMERIS_TYPE":0,"CLASSIFICATION_TYPE":"U","NORAD_CAT_ID":20465,"ELEMENT_SET_NO":999,"REV_AT_EPOCH":80582,"BSTAR":0.00028584,"MEAN_MOTION_DOT":3.685e-5,"MEAN_MOTION_DDOT":0},{"OBJECT_NAME":"SL-14 R\/B","OBJECT_ID":"1990-010B","EPOCH":"2023-09-15T10:26:58.159104","MEAN_MOTION":14.82011177,"ECCENTRICITY":0.0021392,"INCLINATION":82.5039,"RA_OF_ASC_NODE":37.5015,"ARG_OF_PERICENTER":46.7661,"MEAN_ANOMALY":313.5335,"EPHEMERIS_TYPE":0,"CLASSIFICATION_TYPE":"U","NORAD_CAT_ID":20466,"ELEMENT_SET_NO":999,"REV_AT_EPOCH":79418,"BSTAR":9.5793e-5,"MEAN_MOTION_DOT":7.86e-6,"MEAN_MOTION_DDOT":0},{"OBJECT_NAME":"HST","OBJECT_ID":"1990-037B","EPOCH":"2023-09-15T12:33:49.966272","MEAN_MOTION":15.14025695,"ECCENTRICITY":0.0001918,"INCLINATION":28.47,"RA_OF_ASC_NODE":26.582,"ARG_OF_PERICENTER":282.2005,"MEAN_ANOMALY":126.5184,"EPHEMERIS_TYPE":0,"CLASSIFICATION_TYPE":"U","NORAD_CAT_ID":20580,"ELEMENT_SET_NO":999,"REV_AT_EPOCH":63516,"BSTAR":0.00024889,"MEAN_MOTION_DOT":4.831e-5,"MEAN_MOTION_DDOT":0},{"OBJECT_NAME":"COSMOS 2084","OBJECT_ID":"1990-055A","EPOCH":"2023-09-15T06:22:06.107808","MEAN_MOTION":14.95901542,"ECCENTRICITY":0.0131068,"INCLINATION":62.7926,"RA_OF_ASC_NODE":165.6332,"ARG_OF_PERICENTER":94.5382,"MEAN_ANOMALY":267.07,"EPHEMERIS_TYPE":0,"CLASSIFICATION_TYPE":"U","NORAD_CAT_ID":20663,"ELEMENT_SET_NO":999,"REV_AT_EPOCH":80025,"BSTAR":0.00037855,"MEAN_MOTION_DOT":4.846e-5,"MEAN_MOTION_DDOT":0},{"OBJECT_NAME":"SL-6 R\/B(2)","OBJECT_ID":"1990-055D","EPOCH":"2023-09-15T14:30:36.858528","MEAN_MOTION":14.95873433,"ECCENTRICITY":0.0118099,"INCLINATION":62.7832,"RA_OF_ASC_NODE":78.1691,"ARG_OF_PERICENTER":116.2856,"MEAN_ANOMALY":245.0431,"EPHEMERIS_TYPE":0,"CLASSIFICATION_TYPE":"U","NORAD_CAT_ID":20666,"ELEMENT_SET_NO":999,"REV_AT_EPOCH":80227,"BSTAR":0.00032208,"MEAN_MOTION_DOT":3.951e-5,"MEAN_MOTION_DDOT":0},{"OBJECT_NAME":"SL-8 R\/B","OBJECT_ID":"1991-006B","EPOCH":"2023-09-15T13:33:16.295616","MEAN_MOTION":13.77268592,"ECCENTRICITY":0.0023695,"INCLINATION":82.941,"RA_OF_ASC_NODE":124.052,"ARG_OF_PERICENTER":54.7049,"MEAN_ANOMALY":10.0358,"EPHEMERIS_TYPE":0,"CLASSIFICATION_TYPE":"U","NORAD_CAT_ID":21088,"ELEMENT_SET_NO":999,"REV_AT_EPOCH":63933,"BSTAR":0.00013676,"MEAN_MOTION_DOT":1.51e-6,"MEAN_MOTION_DDOT":0},{"OBJECT_NAME":"OKEAN-3","OBJECT_ID":"1991-039A","EPOCH":"2023-09-15T14:20:04.449408","MEAN_MOTION":14.95967546,"ECCENTRICITY":0.0017355,"INCLINATION":82.5198,"RA_OF_ASC_NODE":128.7139,"ARG_OF_PERICENTER":153.0334,"MEAN_ANOMALY":207.1794,"EPHEMERIS_TYPE":0,"CLASSIFICATION_TYPE":"U","NORAD_CAT_ID":21397,"ELEMENT_SET_NO":999,"REV_AT_EPOCH":72916,"BSTAR":0.00025902,"MEAN_MOTION_DOT":2.936e-5,"MEAN_MOTION_DDOT":0},{"OBJECT_NAME":"COSMOS 2151","OBJECT_ID":"1991-042A","EPOCH":"2023-09-15T11:44:51.303552","MEAN_MOTION":14.94261067,"ECCENTRICITY":0.0012343,"INCLINATION":82.4979,"RA_OF_ASC_NODE":233.6703,"ARG_OF_PERICENTER":225.4608,"MEAN_ANOMALY":134.5605,"EPHEMERIS_TYPE":0,"CLASSIFICATION_TYPE":"U","NORAD_CAT_ID":21422,"ELEMENT_SET_NO":999,"REV_AT_EPOCH":72759,"BSTAR":0.0002235,"MEAN_MOTION_DOT":2.425e-5,"MEAN_MOTION_DDOT":0},{"OBJECT_NAME":"SL-14 R\/B","OBJECT_ID":"1991-042B","EPOCH":"2023-09-15T08:26:43.052352","MEAN_MOTION":14.80380432,"ECCENTRICITY":0.0016883,"INCLINATION":82.4975,"RA_OF_ASC_NODE":349.1854,"ARG_OF_PERICENTER":341.3729,"MEAN_ANOMALY":18.6864,"EPHEMERIS_TYPE":0,"CLASSIFICATION_TYPE":"U","NORAD_CAT_ID":21423,"ELEMENT_SET_NO":999,"REV_AT_EPOCH":71891,"BSTAR":8.5008e-5,"MEAN_MOTION_DOT":6.73e-6,"MEAN_MOTION_DDOT":0},{"OBJECT_NAME":"ERS-1","OBJECT_ID":"1991-050A","EPOCH":"2023-09-15T12:50:01.524768","MEAN_MOTION":14.38218934,"ECCENTRICITY":0.0033045,"INCLINATION":98.7515,"RA_OF_ASC_NODE":239.4665,"ARG_OF_PERICENTER":10.659,"MEAN_ANOMALY":349.529,"EPHEMERIS_TYPE":0,"CLASSIFICATION_TYPE":"U","NORAD_CAT_ID":21574,"ELEMENT_SET_NO":999,"REV_AT_EPOCH":68542,"BSTAR":0.00015713,"MEAN_MOTION_DOT":4.34e-6,"MEAN_MOTION_DDOT":0}]
